198P/ODAS,e,1.3387,358.2480,69.1775,3.597745,0.1444304,0.44374410,167.6789,02/17.0/2022,2000,g  9.0,4.0
# From MPC 75725
199P/Shoemaker,e,24.9320,92.3649,191.7198,5.890077,0.0689481,0.50582795,322.9676,02/17.0/2022,2000,g 10.0,4.0
# From MPEC 2022-C56
200P/Larsen,e,12.0985,234.7721,134.1789,4.943404,0.0896737,0.33268107,83.7025,02/17.0/2022,2000,g  9.0,4.0
# From MPC 93588
201P/LONEOS,e,5.7392,19.7459,41.5483,3.354500,0.1604214,0.63711379,42.7220,02/17.0/2022,2000,g 14.0,4.0
# From MPEC 2021-N06
202P/Scotti,e,2.1080,177.5327,276.6711,4.083815,0.1194277,0.26173844,261.3567,02/17.0/2022,2000,g 13.5,4.0
# From MPEC 2021-S45
203P/Korlevic,e,2.9726,290.3279,154.7864,4.670470,0.0976480,0.31532880,69.7524,02/17.0/2022,2000,g 14.5,2.0
# From MPC 98566
204P/LINEAR-NEAT,e,6.5961,108.5146,356.5796,3.583562,0.1452887,0.48797332,320.3725,02/17.0/2022,2000,g 14.0,4.0
# From MPEC 2021-W31
205P/Giacobini,e,15.3059,179.6019,154.1899,3.543674,0.1477486,0.56821612,5.0661,02/17.0/2022,2000,g 13.0,4.0
# From MPC 75725
206P/Barnard-Boattini,e,33.6344,202.3387,189.4985,3.488808,0.1512476,0.55144250,52.8551,02/17.0/2022,2000,g 19.0,4.0
# From MPC 75725
207P/NEAT,e,10.1937,198.2350,273.0550,3.874079,0.1292562,0.75880044,267.7342,02/17.0/2022,2000,g 16.0,4.0
# From MPEC 2020-W26
208P/McMillan,e,4.4118,36.3405,310.5086,4.044080,0.1211922,0.37405614,248.7002,02/17.0/2022,2000,g 12.5,4.0
# From MPC 90771
209P/LINEAR,e,21.2560,62.7734,152.4490,2.959914,0.1935466,0.67305280,189.8215,02/17.0/2022,2000,g 17.0,2.0
# From MPC105242
210P/Christensen,e,10.2660,93.8210,345.8937,3.163680,0.1751521,0.83333520,119.1192,02/17.0/2022,2000,g 13.5,4.0
# From MPEC 2022-C56
211P/Hill,e,18.9213,117.1314,4.2797,3.545943,0.1476068,0.34357218,326.1079,02/17.0/2022,2000,g 12.5,4.0
# From MPEC 2021-F20
212P/NEAT,e,22.1887,98.1974,14.0753,3.892631,0.1283333,0.58751860,257.5602,02/17.0/2022,2000,g 17.0,2.0
# From MPC114608
213P/Van Ness,e,10.3812,311.2939,5.6815,3.347193,0.1609470,0.40824214,258.2384,02/17.0/2022,2000,g 10.5,4.0
# From MPC 92986
214P/LINEAR,e,15.1834,348.2494,190.2027,3.619298,0.1431422,0.48585642,328.3281,02/17.0/2022,2000,g 13.0,4.0
# From MPEC 2022-C56
215P/NEAT,e,10.5794,56.6852,262.2755,4.329119,0.1094221,0.16661405,89.8093,02/17.0/2022,2000,g 11.0,4.0
# From MPC100284
216P/LINEAR,e,9.0649,359.8127,151.4293,3.865219,0.1297009,0.44774723,270.6640,02/17.0/2022,2000,g 13.0,4.0
# From MPEC 2021-N06
217P/LINEAR,e,12.8633,125.4628,246.8731,3.949853,0.1255546,0.68905744,210.2587,02/17.0/2022,2000,g 12.0,4.0
# From MPEC 2020-K19
218P/LINEAR,e,2.7287,175.9781,59.6811,3.091342,0.1813358,0.62230405,90.8855,02/17.0/2022,2000,g 16.0,4.0
# From MPC100284
219P/LINEAR,e,11.5352,230.9563,107.4932,3.648551,0.1414241,0.35410883,257.2620,02/17.0/2022,2000,g 11.0,4.0
# From MPEC 2021-BE3
220P/McNaught,e,8.1288,150.1021,180.5637,3.116406,0.1791525,0.50165907,77.6382,02/17.0/2022,2000,g 15.0,4.0
# From MPEC 2021-J28
221P/LINEAR,e,11.4275,229.7010,40.1215,3.455851,0.1534163,0.49270532,9.3463,02/17.0/2022,2000,g 14.5,4.0
# From MPC 92277
222P/LINEAR,e,5.0983,6.7765,346.2592,2.899202,0.1996578,0.71474919,197.1418,02/17.0/2022,2000,g 20.0,4.0
# From MPEC 2021-S45
223P/Skiff,e,27.0263,346.7706,37.8241,4.158976,0.1162049,0.41624029,129.6911,02/17.0/2022,2000,g 12.0,4.0
# From MPC 75727
224P/LINEAR-NEAT,e,13.3007,40.0562,16.6460,3.446839,0.1540184,0.40649175,325.3593,02/17.0/2022,2000,g 15.5,4.0
# From MPC 75727
225P/LINEAR,e,21.3654,14.2007,3.8848,3.649193,0.1413868,0.63831859,284.0598,02/17.0/2022,2000,g 18.0,4.0
# From MPC106349
226P/Pigott-LINEAR-Kowalski,e,44.0352,54.0050,341.0477,3.766911,0.1348112,0.52874801,268.5505,02/17.0/2022,2000,g 12.5,4.0
# From MPC102956
227P/Catalina-LINEAR,e,6.8847,41.9087,98.4513,3.510924,0.1498207,0.52784255,248.5892,02/17.0/2022,2000,g 16.5,2.0
# From MPEC 2020-L06
228P/LINEAR,e,7.9127,30.9828,115.0437,4.169112,0.1157814,0.17624729,82.1963,02/17.0/2022,2000,g 14.5,2.0
# From MPC106349
229P/Gibbs,e,26.0923,157.9107,223.9890,3.928391,0.1265849,0.37751568,219.1671,02/17.0/2022,2000,g 13.0,4.0
# From MPEC 2022-CN4
230P/LINEAR,e,15.4702,106.9847,313.4290,3.451164,0.1537290,0.54543498,355.3373,02/17.0/2022,2000,g 13.0,4.0
# From MPEC 2020-K19
231P/LINEAR-NEAT,e,12.3258,133.0169,43.9202,4.037399,0.1214931,0.24575118,118.5073,02/17.0/2022,2000,g 14.5,2.0
# From MPC112394
232P/Hill,e,14.6381,56.0162,53.3234,4.477659,0.1040226,0.33431064,109.0565,02/17.0/2022,2000,g 11.5,4.0
# From MPEC 2021-N06
233P/La Sagra,e,11.2853,74.9161,27.0064,3.029606,0.1869066,0.41188380,94.0898,02/17.0/2022,2000,g 15.0,4.0
# From MPC110497
234P/LINEAR,e,11.5348,179.5695,357.2248,3.798857,0.1331143,0.25552955,229.5529,02/17.0/2022,2000,g 12.0,4.0
# From MPC110497
235P/LINEAR,e,9.0426,202.9308,333.4330,3.948339,0.1256268,0.32867630,179.4352,02/17.0/2022,2000,g 12.0,4.0
# From MPC107688
236P/LINEAR,e,16.3419,245.5975,119.2743,3.729371,0.1368519,0.50920351,211.8575,02/17.0/2022,2000,g 14.0,4.0
# From MPEC 2022-CN4
237P/LINEAR,e,14.0147,245.3744,25.2384,3.512296,0.1497330,0.43432001,292.3786,02/17.0/2022,2000,g 14.5,2.0
# From MPC107688
238P/Read,e,1.2641,51.6233,324.2849,3.168617,0.1747429,0.25228247,341.0087,02/17.0/2022,2000,g 14.5,4.0
# From MPEC 2021-F20
239P/LINEAR,e,11.2983,255.9156,220.4159,4.469179,0.1043188,0.63007726,118.3741,02/17.0/2022,2000,g 17.5,2.0
# From MPEC 2021-F20
240P/NEAT,e,23.5184,74.9085,351.9457,3.865620,0.1296807,0.44930849,178.0804,02/17.0/2022,2000,g 12.1,4.0
# From MPEC 2022-CN4
241P/LINEAR,e,21.1061,305.4841,111.4373,4.918555,0.0903541,0.61012822,18.6263,02/17.0/2022,2000,g 13.5,4.0
# From MPEC 2021-S45
242P/Spahr,e,32.5041,180.3849,245.7854,5.490154,0.0766174,0.27838106,279.7200,02/17.0/2022,2000,g  8.0,4.0
# From MPC111774
243P/NEAT,e,7.6404,87.6224,283.5698,3.830593,0.1314635,0.36039143,166.9459,02/17.0/2022,2000,g 12.5,4.0
# From MPEC 2022-CN4
244P/Scotti,e,2.2594,353.9910,93.0508,4.894773,0.0910134,0.19901460,335.1666,02/17.0/2022,2000,g  9.0,4.0
# From MPEC 2022-CN4
245P/WISE,e,21.1956,316.6533,316.8809,4.045763,0.1211165,0.45673700,178.0243,02/17.0/2022,2000,g 14.0,4.0
# From MPEC 2021-WD8
246P/NEAT,e,15.9721,78.6819,176.5480,4.024897,0.1220596,0.28825018,43.7290,02/17.0/2022,2000,g 10.5,4.0
# From MPEC 2021-F20
247P/LINEAR,e,13.6553,54.0148,47.4406,3.968478,0.1246718,0.62431625,146.3263,02/17.0/2022,2000,g 16.5,2.0
# From MPC 75730
248P/Gibbs,e,6.3501,207.7906,209.8536,5.991325,0.0672078,0.63866002,272.1907,02/17.0/2022,2000,g 14.0,4.0
# From MPEC 2021-S45
249P/LINEAR,e,8.3906,239.1338,65.6753,2.763185,0.2145800,0.81997151,128.2142,02/17.0/2022,2000,g 15.5,4.0
# From MPC110497
250P/Larson,e,13.1588,73.4346,46.1571,3.765146,0.1349060,0.39966298,200.0043,02/17.0/2022,2000,g 14.5,4.0
# From MPC104795
251P/LINEAR,e,23.3885,219.3633,31.2837,3.511678,0.1497725,0.50475639,251.2370,02/17.0/2022,2000,g 16.5,2.0
# From MPEC 2021-S45
252P/LINEAR,e,10.4100,190.9406,343.3116,3.049365,0.1850930,0.67185086,40.8514,02/17.0/2022,2000,g 17.5,4.0
# From MPEC 2020-FB5
253P/PANSTARRS,e,4.9435,146.8847,230.6546,3.465882,0.1527508,0.41423401,210.7820,02/17.0/2022,2000,g 14.5,4.0
# From MPEC 2022-CN4
254P/McNaught,e,32.5717,129.1776,219.5660,4.613305,0.0994686,0.31978176,50.2278,02/17.0/2022,2000,g 11.0,4.0
# From MPEC 2021-UA9
255P/Levy,e,13.4135,275.6953,185.9780,2.943856,0.1951324,0.71172887,320.5306,02/17.0/2022,2000,g 14.1,4.0
# From MPEC 2022-C56
256P/LINEAR,e,27.6211,81.3446,124.2225,4.638842,0.0986483,0.41799686,321.6879,02/17.0/2022,2000,g 14.0,2.0
# From MPEC 2021-Y10
257P/Catalina,e,20.2212,207.7291,117.6943,3.762686,0.1350384,0.43034539,70.7938,02/17.0/2022,2000,g 11.5,4.0
# From MPEC 2021-U31
258P/PANSTARRS,e,6.7461,126.2443,25.9182,4.396869,0.1069027,0.20845838,65.0649,02/17.0/2022,2000,g 13.0,4.0
# From MPC106349
259P/Garradd,e,15.8903,51.4482,257.6461,2.730522,0.2184417,0.33871944,1.8784,02/17.0/2022,2000,g 15.5,4.0
# From MPEC 2020-SI8
260P/McNaught,e,15.0583,349.3383,18.4207,3.623117,0.1429159,0.60926758,127.2875,02/17.0/2022,2000,g 13.5,4.0
# From MPEC 2021-J28
261P/Larson,e,6.0738,291.1455,67.1943,3.490445,0.1511412,0.42330828,147.1784,02/17.0/2022,2000,g 14.0,4.0
# From MPC 82322
262P/McNaught-Russell,e,29.2523,217.8727,171.0294,6.873215,0.0546971,0.81598033,183.9451,02/17.0/2022,2000,g 13.5,4.0
# From MPC 89018
263P/Gibbs,e,11.5213,105.5561,34.9203,3.044401,0.1855459,0.59349885,295.5146,02/17.0/2022,2000,g  9.0,4.0
# From MPC114608
264P/Larsen,e,25.2021,220.4704,346.7197,3.890573,0.1284351,0.37534523,119.1214,02/17.0/2022,2000,g 13.0,4.0
# From MPC 79870
265P/LINEAR,e,14.3650,342.9259,33.4527,4.254006,0.1123329,0.64755995,41.8899,02/17.0/2022,2000,g 14.5,4.0
# From MPEC 2021-F20
266P/Christensen,e,3.4270,4.9980,97.7289,3.532976,0.1484202,0.33954916,99.2586,02/17.0/2022,2000,g 14.7,4.0
# From MPC114608
267P/LONEOS,e,6.1407,228.5927,114.1900,3.211473,0.1712567,0.61437775,223.4054,02/17.0/2022,2000,g 19.5,4.0
# From MPC 92277
268P/Bernardi,e,15.9801,127.2739,359.8088,4.551446,0.1015033,0.47778643,254.5251,02/17.0/2022,2000,g 14.0,4.0
# From MPC104795
269P/Jedicke,e,7.0761,241.7226,225.7833,7.073271,0.0523930,0.43083037,141.3543,02/17.0/2022,2000,g 10.0,4.0
# From MPC 88332
270P/Gehrels,e,2.9217,223.0005,209.7886,6.662697,0.0573098,0.46812844,182.0052,02/17.0/2022,2000,g  8.0,4.0
# From MPC 92277
271P/van Houten-Lemmon,e,6.8718,9.3157,36.3862,7.040044,0.0527644,0.39490956,165.6657,02/17.0/2022,2000,g 11.0,4.0
# From MPEC 2022-C56
272P/NEAT,e,18.0749,109.4703,27.9059,4.459243,0.1046676,0.45458233,344.2911,02/17.0/2022,2000,g 16.0,2.0
# From MPC 82723
273P/Pons-Gambart,e,136.7732,320.4000,20.3275,31.90288,0.0054696,0.97420122,0.0000,12/19.6010/2012,2000,g 11.5,4.0
# From MPEC 2022-CN4
274P/Tombaugh-Tenagra,e,15.8161,81.3405,38.4711,4.375130,0.1077005,0.43929332,354.5639,02/17.0/2022,2000,g 13.0,4.0
# From MPC 81862
275P/Hermann,e,21.2759,348.7577,174.0228,5.774745,0.0710240,0.71254006,237.9567,02/17.0/2022,2000,g 17.0,4.0
# From MPEC 2020-K19
